CCSDS_OMM_VERS = 2.0
CREATION_DATE  = 
ORIGINATOR     = 

OBJECT_NAME    = UNKNOWN
OBJECT_ID      = 
CENTER_NAME    = EARTH
REF_FRAME      = TEME
TIME_SYSTEM    = UTC
MEAN_ELEMENT_THEORY = SGP/SGP4

EPOCH          = 2025-12-14T22:21:07.313760
MEAN_MOTION    = 12.32156082
ECCENTRICITY   = .0174638
INCLINATION    = 102.0097
RA_OF_ASC_NODE = 46.4091
ARG_OF_PERICENTER = 288.9011
MEAN_ANOMALY   = 246.8488

EPHEMERIS_TYPE = 0
CLASSIFICATION_TYPE = U
NORAD_CAT_ID   = 87561
ELEMENT_SET_NO = 999
REV_AT_EPOCH   = 54270
BSTAR          = .92839E-3
MEAN_MOTION_DOT = .73E-6
MEAN_MOTION_DDOT = 0

CCSDS_OMM_VERS = 2.0
CREATION_DATE  = 
ORIGINATOR     = 

OBJECT_NAME    = UNKNOWN
OBJECT_ID      = 
CENTER_NAME    = EARTH
REF_FRAME      = TEME
TIME_SYSTEM    = UTC
MEAN_ELEMENT_THEORY = SGP/SGP4

EPOCH          = 2025-12-16T10:29:46.824000
MEAN_MOTION    = 14.05998245
ECCENTRICITY   = .0172077
INCLINATION    = 99.9462
RA_OF_ASC_NODE = 342.4095
ARG_OF_PERICENTER = 160.7936
MEAN_ANOMALY   = 199.9822

EPHEMERIS_TYPE = 0
CLASSIFICATION_TYPE = U
NORAD_CAT_ID   = 87565
ELEMENT_SET_NO = 999
REV_AT_EPOCH   = 61695
BSTAR          = .42935E-3
MEAN_MOTION_DOT = .753E-5
MEAN_MOTION_DDOT = 0

CCSDS_OMM_VERS = 2.0
CREATION_DATE  = 
ORIGINATOR     = 

OBJECT_NAME    = UNKNOWN
OBJECT_ID      = 
CENTER_NAME    = EARTH
REF_FRAME      = TEME
TIME_SYSTEM    = UTC
MEAN_ELEMENT_THEORY = SGP/SGP4

EPOCH          = 2025-12-16T06:53:17.170656
MEAN_MOTION    = 12.68540909
ECCENTRICITY   = .0055552
INCLINATION    = 101.9881
RA_OF_ASC_NODE = 167.7771
ARG_OF_PERICENTER = 246.3997
MEAN_ANOMALY   = 289.4862

EPHEMERIS_TYPE = 0
CLASSIFICATION_TYPE = U
NORAD_CAT_ID   = 87569
ELEMENT_SET_NO = 999
REV_AT_EPOCH   = 55891
BSTAR          = .10586E-3
MEAN_MOTION_DOT = -.28E-6
MEAN_MOTION_DDOT = 0

CCSDS_OMM_VERS = 2.0
CREATION_DATE  = 
ORIGINATOR     = 

OBJECT_NAME    = UNKNOWN
OBJECT_ID      = 
CENTER_NAME    = EARTH
REF_FRAME      = TEME
TIME_SYSTEM    = UTC
MEAN_ELEMENT_THEORY = SGP/SGP4

EPOCH          = 2025-12-15T00:20:18.932064
MEAN_MOTION    = 14.40061598
ECCENTRICITY   = .0018898
INCLINATION    = 74.0236
RA_OF_ASC_NODE = 98.6890
ARG_OF_PERICENTER = 139.1901
MEAN_ANOMALY   = 221.0673

EPHEMERIS_TYPE = 0
CLASSIFICATION_TYPE = U
NORAD_CAT_ID   = 87587
ELEMENT_SET_NO = 999
REV_AT_EPOCH   = 63413
BSTAR          = .89615E-4
MEAN_MOTION_DOT = .257E-5
MEAN_MOTION_DDOT = 0

CCSDS_OMM_VERS = 2.0
CREATION_DATE  = 
ORIGINATOR     = 

OBJECT_NAME    = UNKNOWN
OBJECT_ID      = 
CENTER_NAME    = EARTH
REF_FRAME      = TEME
TIME_SYSTEM    = UTC
MEAN_ELEMENT_THEORY = SGP/SGP4

EPOCH          = 2025-12-15T01:23:21.619104
MEAN_MOTION    = 14.10328826
ECCENTRICITY   = .002591
INCLINATION    = 98.7886
RA_OF_ASC_NODE = 26.1235
ARG_OF_PERICENTER = 276.3023
MEAN_ANOMALY   = 113.5151

EPHEMERIS_TYPE = 0
CLASSIFICATION_TYPE = U
NORAD_CAT_ID   = 87590
ELEMENT_SET_NO = 999
REV_AT_EPOCH   = 15457
BSTAR          = .39111E-3
MEAN_MOTION_DOT = .653E-5
MEAN_MOTION_DDOT = 0

CCSDS_OMM_VERS = 2.0
CREATION_DATE  = 
ORIGINATOR     = 

OBJECT_NAME    = UNKNOWN
OBJECT_ID      = 
CENTER_NAME    = EARTH
REF_FRAME      = TEME
TIME_SYSTEM    = UTC
MEAN_ELEMENT_THEORY = SGP/SGP4

EPOCH          = 2025-12-16T04:49:57.851328
MEAN_MOTION    = 12.46902986
ECCENTRICITY   = .0632245
INCLINATION    = 66.0338
RA_OF_ASC_NODE = 141.7528
ARG_OF_PERICENTER = 137.6038
MEAN_ANOMALY   = 32.4783

EPHEMERIS_TYPE = 0
CLASSIFICATION_TYPE = U
NORAD_CAT_ID   = 87616
ELEMENT_SET_NO = 999
REV_AT_EPOCH   = 53666
BSTAR          = .20211E-2
MEAN_MOTION_DOT = .55E-5
MEAN_MOTION_DDOT = 0

CCSDS_OMM_VERS = 2.0
CREATION_DATE  = 
ORIGINATOR     = 

OBJECT_NAME    = UNKNOWN
OBJECT_ID      = 
CENTER_NAME    = EARTH
REF_FRAME      = TEME
TIME_SYSTEM    = UTC
MEAN_ELEMENT_THEORY = SGP/SGP4

EPOCH          = 2025-12-16T01:15:13.985280
MEAN_MOTION    = 14.70064204
ECCENTRICITY   = .009661
INCLINATION    = 98.6804
RA_OF_ASC_NODE = 287.6982
ARG_OF_PERICENTER = 237.8505
MEAN_ANOMALY   = 121.3299

EPHEMERIS_TYPE = 0
CLASSIFICATION_TYPE = U
NORAD_CAT_ID   = 87624
ELEMENT_SET_NO = 999
REV_AT_EPOCH   = 58076
BSTAR          = .62238E-3
MEAN_MOTION_DOT = .3955E-4
MEAN_MOTION_DDOT = 0

CCSDS_OMM_VERS = 2.0
CREATION_DATE  = 
ORIGINATOR     = 

OBJECT_NAME    = UNKNOWN
OBJECT_ID      = 
CENTER_NAME    = EARTH
REF_FRAME      = TEME
TIME_SYSTEM    = UTC
MEAN_ELEMENT_THEORY = SGP/SGP4

EPOCH          = 2025-12-16T05:38:58.280928
MEAN_MOTION    = 14.61732089
ECCENTRICITY   = .0032985
INCLINATION    = 100.2687
RA_OF_ASC_NODE = 166.3353
ARG_OF_PERICENTER = 271.7021
MEAN_ANOMALY   = 88.0395

EPHEMERIS_TYPE = 0
CLASSIFICATION_TYPE = U
NORAD_CAT_ID   = 87650
ELEMENT_SET_NO = 999
REV_AT_EPOCH   = 8027
BSTAR          = .18343E-2
MEAN_MOTION_DOT = .9157E-4
MEAN_MOTION_DDOT = 0

CCSDS_OMM_VERS = 2.0
CREATION_DATE  = 
ORIGINATOR     = 

OBJECT_NAME    = UNKNOWN
OBJECT_ID      = 
CENTER_NAME    = EARTH
REF_FRAME      = TEME
TIME_SYSTEM    = UTC
MEAN_ELEMENT_THEORY = SGP/SGP4

EPOCH          = 2025-12-14T07:39:57.084480
MEAN_MOTION    = 14.27843256
ECCENTRICITY   = .0063864
INCLINATION    = 70.8603
RA_OF_ASC_NODE = 3.2575
ARG_OF_PERICENTER = 271.0852
MEAN_ANOMALY   = 88.2959

EPHEMERIS_TYPE = 0
CLASSIFICATION_TYPE = U
NORAD_CAT_ID   = 87672
ELEMENT_SET_NO = 999
REV_AT_EPOCH   = 62468
BSTAR          = .9821E-3
MEAN_MOTION_DOT = .2434E-4
MEAN_MOTION_DDOT = 0

CCSDS_OMM_VERS = 2.0
CREATION_DATE  = 
ORIGINATOR     = 

OBJECT_NAME    = UNKNOWN
OBJECT_ID      = 
CENTER_NAME    = EARTH
REF_FRAME      = TEME
TIME_SYSTEM    = UTC
MEAN_ELEMENT_THEORY = SGP/SGP4

EPOCH          = 2025-12-10T23:07:30.426240
MEAN_MOTION    = 13.71111220
ECCENTRICITY   = .0155804
INCLINATION    = 66.7360
RA_OF_ASC_NODE = 102.8871
ARG_OF_PERICENTER = 163.7958
MEAN_ANOMALY   = 196.8175

EPHEMERIS_TYPE = 0
CLASSIFICATION_TYPE = U
NORAD_CAT_ID   = 87681
ELEMENT_SET_NO = 999
REV_AT_EPOCH   = 60159
BSTAR          = .2131E-2
MEAN_MOTION_DOT = .2007E-4
MEAN_MOTION_DDOT = 0

CCSDS_OMM_VERS = 2.0
CREATION_DATE  = 
ORIGINATOR     = 

OBJECT_NAME    = UNKNOWN
OBJECT_ID      = 
CENTER_NAME    = EARTH
REF_FRAME      = TEME
TIME_SYSTEM    = UTC
MEAN_ELEMENT_THEORY = SGP/SGP4

EPOCH          = 2025-12-16T06:41:57.197472
MEAN_MOTION    = 14.00421389
ECCENTRICITY   = .0578462
INCLINATION    = 65.7947
RA_OF_ASC_NODE = 344.8126
ARG_OF_PERICENTER = 45.6832
MEAN_ANOMALY   = 319.0190

EPHEMERIS_TYPE = 0
CLASSIFICATION_TYPE = U
NORAD_CAT_ID   = 87690
ELEMENT_SET_NO = 999
REV_AT_EPOCH   = 60787
BSTAR          = .59258E-3
MEAN_MOTION_DOT = .3831E-4
MEAN_MOTION_DDOT = 0

CCSDS_OMM_VERS = 2.0
CREATION_DATE  = 
ORIGINATOR     = 

OBJECT_NAME    = UNKNOWN
OBJECT_ID      = 
CENTER_NAME    = EARTH
REF_FRAME      = TEME
TIME_SYSTEM    = UTC
MEAN_ELEMENT_THEORY = SGP/SGP4

EPOCH          = 2025-12-16T07:55:40.154304
MEAN_MOTION    = 14.64423130
ECCENTRICITY   = .0104404
INCLINATION    = 98.6723
RA_OF_ASC_NODE = 174.1057
ARG_OF_PERICENTER = 256.6829
MEAN_ANOMALY   = 227.1187

EPHEMERIS_TYPE = 0
CLASSIFICATION_TYPE = U
NORAD_CAT_ID   = 87706
ELEMENT_SET_NO = 999
REV_AT_EPOCH   = 57904
BSTAR          = .65209E-3
MEAN_MOTION_DOT = .3676E-4
MEAN_MOTION_DDOT = 0

