UNKNOWN                 
1 87561U          25348.93133465  .00000073  00000+0  92839-3 0  9996
2 87561 102.0097  46.4091 0174638 288.9011 246.8488 12.32156082542708
UNKNOWN                 
1 87565U          25350.43734750  .00000753  00000+0  42935-3 0  9999
2 87565  99.9462 342.4095 0172077 160.7936 199.9822 14.05998245616959
UNKNOWN                 
1 87569U          25350.28700429 -.00000028  00000+0  10586-3 0  9995
2 87569 101.9881 167.7771 0055552 246.3997 289.4862 12.68540909558914
UNKNOWN                 
1 87587U          25349.01410801  .00000257  00000+0  89615-4 0  9999
2 87587  74.0236  98.6890 0018898 139.1901 221.0673 14.40061598634133
UNKNOWN                 
1 87590U          25349.05788911  .00000653  00000+0  39111-3 0  9992
2 87590  98.7886  26.1235 0025910 276.3023 113.5151 14.10328826154570
UNKNOWN                 
1 87616U          25350.20136402  .00000550  00000+0  20211-2 0  9998
2 87616  66.0338 141.7528 0632245 137.6038  32.4783 12.46902986536664
UNKNOWN                 
1 87624U          25350.05224520  .00003955  00000+0  62238-3 0  9997
2 87624  98.6804 287.6982 0096610 237.8505 121.3299 14.70064204580769
UNKNOWN                 
1 87650U          25350.23539677  .00009157  00000+0  18343-2 0  9995
2 87650 100.2687 166.3353 0032985 271.7021  88.0395 14.61732089 80277
UNKNOWN                 
1 87672U          25348.31941070  .00002434  00000+0  98210-3 0  9992
2 87672  70.8603   3.2575 0063864 271.0852  88.2959 14.27843256624689
UNKNOWN                 
1 87681U          25344.96354660  .00002007  00000+0  21310-2 0  9994
2 87681  66.7360 102.8871 0155804 163.7958 196.8175 13.71111220601596
UNKNOWN                 
1 87690U          25350.27913423  .00003831  00000+0  59258-3 0  9992
2 87690  65.7947 344.8126 0578462  45.6832 319.0190 14.00421389607871
UNKNOWN                 
1 87706U          25350.33032586  .00003676  00000+0  65209-3 0  9999
2 87706  98.6723 174.1057 0104404 256.6829 227.1187 14.64423130579042
